{"norad_cat_id":"37789","object_name":"NIGERIASAT 2","object_id":"2011-044B","object_type":"PAYLOAD","country_code":"NIG","epoch":"2026-05-30T05:44:03.057792","creation_date":"2026-05-30T07:26:56","launch_date":"2011-08-17","decay_date":null,"inclination":97.8762,"eccentricity":0.0029878,"mean_motion":14.70497742,"period":97.926,"semimajor_axis":7037.617,"apoapsis":680.509,"periapsis":638.455,"tle_line0":"0 NIGERIASAT 2","tle_line1":"1 37789U 11044B   26150.23892428  .00000176  00000-0  36737-4 0  9990","tle_line2":"2 37789  97.8762 128.0132 0029878 176.8066 241.1745 14.70497742787933","fetched_at":"2026-05-30T16:18:06.042337+00:00"}
{"norad_cat_id":"34434","object_name":"COSMOS 2251 DEB","object_id":"1993-036SB","object_type":"DEBRIS","country_code":"CIS","epoch":"2026-05-30T05:42:59.520960","creation_date":"2026-05-30T07:26:56","launch_date":"1993-06-16","decay_date":null,"inclination":74.0572,"eccentricity":0.028189,"mean_motion":13.91249138,"period":103.504,"semimajor_axis":7302.394,"apoapsis":1130.106,"periapsis":718.411,"tle_line0":"0 COSMOS 2251 DEB","tle_line1":"1 34434U 93036SB  26150.23818890  .00003581  00000-0  20695-2 0  9993","tle_line2":"2 34434  74.0572  83.1165 0281890 179.9861 332.2138 13.91249138863086","fetched_at":"2026-05-30T16:18:06.042337+00:00"}
{"norad_cat_id":"40296","object_name":"MERIDIAN 7","object_id":"2014-069A","object_type":"PAYLOAD","country_code":"CIS","epoch":"2026-05-30T05:42:58.173984","creation_date":"2026-05-30T08:26:25","launch_date":"2014-10-30","decay_date":null,"inclination":63.4464,"eccentricity":0.6654794,"mean_motion":2.00591198,"period":717.878,"semimajor_axis":26557.912,"apoapsis":37853.52,"periapsis":2506.034,"tle_line0":"0 MERIDIAN 7","tle_line1":"1 40296U 14069A   26150.23817331  .00000267  00000-0  00000+0 0  9997","tle_line2":"2 40296  63.4464 217.1066 6654794 270.6767  19.6429  2.00591198 84872","fetched_at":"2026-05-30T16:18:06.042337+00:00"}
{"norad_cat_id":"28890","object_name":"BEIJING 1 (TSINGHUA)","object_id":"2005-043A","object_type":"PAYLOAD","country_code":"PRC","epoch":"2026-05-30T05:42:48.440160","creation_date":"2026-05-30T07:36:53","launch_date":"2005-10-27","decay_date":null,"inclination":98.2882,"eccentricity":0.0014246,"mean_motion":14.63520338,"period":98.393,"semimajor_axis":7059.967,"apoapsis":691.89,"periapsis":671.774,"tle_line0":"0 BEIJING 1 (TSINGHUA)","tle_line1":"1 28890U 05043A   26150.23806065  .00000331  00000-0  73357-4 0  9999","tle_line2":"2 28890  98.2882 283.3530 0014246 343.0729  16.9996 14.63520338 98029","fetched_at":"2026-05-30T16:18:06.042337+00:00"}
{"norad_cat_id":"58334","object_name":"OBJECT CG","object_id":"2023-174CG","object_type":"UNKNOWN","country_code":"TBD","epoch":"2026-05-30T05:41:27.384864","creation_date":"2026-05-30T07:36:53","launch_date":"2023-11-11","decay_date":null,"inclination":97.3971,"eccentricity":0.0005924,"mean_motion":15.56273663,"period":92.529,"semimajor_axis":6776.59,"apoapsis":402.469,"periapsis":394.44,"tle_line0":"0 OBJECT CG","tle_line1":"1 58334U 23174CG  26150.23712251  .00052058  00000-0  73835-3 0  9996","tle_line2":"2 58334  97.3971 242.5291 0005924 174.5752 185.5568 15.56273663143030","fetched_at":"2026-05-30T16:18:06.042337+00:00"}
{"norad_cat_id":"65261","object_name":"OBJECT C","object_id":"2025-180C","object_type":"UNKNOWN","country_code":"PRC","epoch":"2026-05-30T05:41:07.253664","creation_date":"2026-05-30T07:56:36","launch_date":"2025-08-19","decay_date":null,"inclination":97.5222,"eccentricity":0.0014453,"mean_motion":15.15262511,"period":95.033,"semimajor_axis":6898.319,"apoapsis":530.154,"periapsis":510.214,"tle_line0":"0 OBJECT C","tle_line1":"1 65261U 25180C   26150.23688951  .00006633  00000-0  35523-3 0  9991","tle_line2":"2 65261  97.5222 277.5489 0014453  29.6085 330.5962 15.15262511 42944","fetched_at":"2026-05-30T16:18:06.042337+00:00"}
{"norad_cat_id":"40921","object_name":"COSMOS 2508","object_id":"2015-050B","object_type":"PAYLOAD","country_code":"CIS","epoch":"2026-05-30T05:41:00.594816","creation_date":"2026-05-30T07:26:56","launch_date":"2015-09-23","decay_date":null,"inclination":82.4865,"eccentricity":0.0015524,"mean_motion":12.42913534,"period":115.857,"semimajor_axis":7872.413,"apoapsis":1506.5,"periapsis":1482.057,"tle_line0":"0 COSMOS 2508","tle_line1":"1 40921U 15050B   26150.23681244  .00000025  00000-0  10721-3 0  9992","tle_line2":"2 40921  82.4865  89.3566 0015524  63.4759 296.7910 12.42913534484610","fetched_at":"2026-05-30T16:18:06.042337+00:00"}
{"norad_cat_id":"46469","object_name":"HAIYANG 2C","object_id":"2020-066A","object_type":"PAYLOAD","country_code":"PRC","epoch":"2026-05-30T05:40:49.432800","creation_date":"2026-05-30T07:36:53","launch_date":"2020-09-21","decay_date":null,"inclination":65.9978,"eccentricity":0.0009602,"mean_motion":13.83373474,"period":104.093,"semimajor_axis":7330.083,"apoapsis":958.986,"periapsis":944.909,"tle_line0":"0 HAIYANG 2C","tle_line1":"1 46469U 20066A   26150.23668325 -.00000002  00000-0  72370-4 0  9998","tle_line2":"2 46469  65.9978 259.9755 0009602 238.4699 121.5432 13.83373474287014","fetched_at":"2026-05-30T16:18:06.042337+00:00"}
{"norad_cat_id":"43034","object_name":"LKW-1","object_id":"2017-077A","object_type":"PAYLOAD","country_code":"PRC","epoch":"2026-05-30T05:40:48.534240","creation_date":"2026-05-30T07:26:56","launch_date":"2017-12-03","decay_date":null,"inclination":97.0998,"eccentricity":0.0001712,"mean_motion":15.23647572,"period":94.51,"semimajor_axis":6872.987,"apoapsis":496.028,"periapsis":493.675,"tle_line0":"0 LKW-1","tle_line1":"1 43034U 17077A   26150.23667285  .00006914  00000-0  29116-3 0  9991","tle_line2":"2 43034  97.0998 185.4246 0001712 109.4626 250.6797 15.23647572471962","fetched_at":"2026-05-30T16:18:06.042337+00:00"}
{"norad_cat_id":"32393","object_name":"COSMOS 2434 (GLONASS)","object_id":"2007-065A","object_type":"PAYLOAD","country_code":"CIS","epoch":"2026-05-30T05:40:18.690816","creation_date":"2026-05-30T07:46:57","launch_date":"2007-12-25","decay_date":null,"inclination":64.3163,"eccentricity":0.0001076,"mean_motion":2.13101476,"period":675.734,"semimajor_axis":25508.066,"apoapsis":19132.676,"periapsis":19127.187,"tle_line0":"0 COSMOS 2434 (GLONASS)","tle_line1":"1 32393U 07065A   26150.23632744  .00000084  00000-0  00000+0 0  9994","tle_line2":"2 32393  64.3163 192.5214 0001076 351.7628  15.1347  2.13101476143391","fetched_at":"2026-05-30T16:18:06.042337+00:00"}
{"norad_cat_id":"58498","object_name":"XINGCHI-1 02B","object_id":"2023-187C","object_type":"PAYLOAD","country_code":"PRC","epoch":"2026-05-30T05:40:16.276800","creation_date":"2026-05-30T07:36:53","launch_date":"2023-12-04","decay_date":null,"inclination":97.9296,"eccentricity":0.001036,"mean_motion":14.85753721,"period":96.921,"semimajor_axis":6989.358,"apoapsis":618.464,"periapsis":603.982,"tle_line0":"0 XINGCHI-1 02B","tle_line1":"1 58498U 23187C   26150.23629950  .00002405  00000-0  28293-3 0  9993","tle_line2":"2 58498  97.9296 234.3822 0010360 191.7175 168.3800 14.85753721134516","fetched_at":"2026-05-30T16:18:06.042337+00:00"}
{"norad_cat_id":"36798","object_name":"ALSAT 2A","object_id":"2010-035D","object_type":"PAYLOAD","country_code":"ALG","epoch":"2026-05-30T05:40:05.716992","creation_date":"2026-05-30T07:26:56","launch_date":"2010-07-12","decay_date":null,"inclination":97.7623,"eccentricity":0.0001171,"mean_motion":14.74450682,"period":97.663,"semimajor_axis":7025.033,"apoapsis":647.72,"periapsis":646.075,"tle_line0":"0 ALSAT 2A","tle_line1":"1 36798U 10035D   26150.23617728  .00000954  00000-0  15082-3 0  9999","tle_line2":"2 36798  97.7623 153.5504 0001171  75.0711 285.0628 14.74450682851111","fetched_at":"2026-05-30T16:18:06.042337+00:00"}
{"norad_cat_id":"64550","object_name":"BRO-18","object_id":"2025-135Y","object_type":"PAYLOAD","country_code":"FR","epoch":"2026-05-30T05:40:05.660832","creation_date":"2026-05-30T07:46:57","launch_date":"2025-06-23","decay_date":null,"inclination":97.4614,"eccentricity":8.13e-05,"mean_motion":15.21840548,"period":94.622,"semimajor_axis":6878.426,"apoapsis":500.85,"periapsis":499.732,"tle_line0":"0 BRO-18","tle_line1":"1 64550U 25135Y   26150.23617663  .00005509  00000-0  24550-3 0  9992","tle_line2":"2 64550  97.4614 265.4104 0000813  58.6406 301.4910 15.21840548 52144","fetched_at":"2026-05-30T16:18:06.042337+00:00"}
{"norad_cat_id":"51839","object_name":"OBJECT R","object_id":"2022-019R","object_type":"UNKNOWN","country_code":"PRC","epoch":"2026-05-30T05:39:47.275776","creation_date":"2026-05-30T07:36:53","launch_date":"2022-02-27","decay_date":null,"inclination":97.3672,"eccentricity":0.000883,"mean_motion":16.07467163,"period":89.582,"semimajor_axis":6631.938,"apoapsis":259.659,"periapsis":247.947,"tle_line0":"0 OBJECT R","tle_line1":"1 51839U 22019R   26150.23596384  .00982374  54239-3  12483-2 0  9993","tle_line2":"2 51839  97.3672 247.4116 0008830 243.6572 116.3804 16.07467163237269","fetched_at":"2026-05-30T16:18:06.042337+00:00"}
{"norad_cat_id":"27055","object_name":"COSMOS 2384","object_id":"2001-058A","object_type":"PAYLOAD","country_code":"CIS","epoch":"2026-05-30T05:39:45.749088","creation_date":"2026-05-30T07:36:53","launch_date":"2001-12-28","decay_date":null,"inclination":82.5461,"eccentricity":0.0008937,"mean_motion":12.59891093,"period":114.296,"semimajor_axis":7801.531,"apoapsis":1430.368,"periapsis":1416.424,"tle_line0":"0 COSMOS 2384","tle_line1":"1 27055U 01058A   26150.23594617  .00000021  00000-0  61363-4 0  9990","tle_line2":"2 27055  82.5461 245.0370 0008937 297.0596  62.9581 12.59891093122792","fetched_at":"2026-05-30T16:18:06.042337+00:00"}
